[{"OBJECT_NAME":"STARLINK-4561","OBJECT_ID":"2022-101AN","EPOCH":"2026-03-09T08:51:43.831584","MEAN_MOTION":15.08852387,"ECCENTRICITY":0.00012328,"INCLINATION":53.2179,"RA_OF_ASC_NODE":55.7816,"ARG_OF_PERICENTER":79.103,"MEAN_ANOMALY":281.01,"EPHEMERIS_TYPE":0,"CLASSIFICATION_TYPE":"U","NORAD_CAT_ID":53563,"ELEMENT_SET_NO":999,"REV_AT_EPOCH":19639,"BSTAR":0.0002153656,"MEAN_MOTION_DOT":3.142e-5,"MEAN_MOTION_DDOT":0},{"OBJECT_NAME":"DISKSAT C","OBJECT_ID":"2025-305A","EPOCH":"2026-03-09T19:16:32.318976","MEAN_MOTION":15.07852977,"ECCENTRICITY":0.00045341,"INCLINATION":45.0017,"RA_OF_ASC_NODE":250.1278,"ARG_OF_PERICENTER":310.7706,"MEAN_ANOMALY":49.2776,"EPHEMERIS_TYPE":0,"CLASSIFICATION_TYPE":"U","NORAD_CAT_ID":67219,"ELEMENT_SET_NO":999,"REV_AT_EPOCH":1231,"BSTAR":0.00075564202,"MEAN_MOTION_DOT":0.00011541,"MEAN_MOTION_DDOT":0}]
